NORAD_CAT_ID,OBJECT_NAME,OBJECT_TYPE,EPOCH,MEAN_MOTION,ECCENTRICITY,INCLINATION,RA_OF_ASC_NODE,ARG_OF_PERICENTER,MEAN_ANOMALY,BSTAR,MEAN_MOTION_DOT,MEAN_MOTION_DDOT,TLE_LINE0,TLE_LINE1,TLE_LINE2,SEMIMAJOR_AXIS,PERIOD,APOGEE,PERIGEE,DECAYED
53161.0,STARLINK-4055,PAYLOAD,2023-01-20 09:36:37,15.08835241,0.0001298,53.2165,261.0439,87.1509,272.9632,0.00052807,8.125e-05,0.0,0 STARLINK-4055,1 53161U 22083AF  23020.40043949  .00008125  00000-0  52807-3 0  9992,2 53161  53.2165 261.0439 0001298  87.1509 272.9632 15.08835241 29240,6917.895,95.438,540.658,538.862,0.0
53161.0,STARLINK-4055,PAYLOAD,2023-01-21 01:30:28,15.0886357,0.0001203,53.2142,258.0702,78.2889,281.8239,0.0011017,0.000173,0.0,0 STARLINK-4055,1 53161U 22083AF  23021.06283321  .00017300  00000-0  11017-2 0  9997,2 53161  53.2142 258.0702 0001203  78.2889 281.8239 15.08863570 29341,6917.808000000001,95.436,540.506,538.841,0.0
53161.0,STARLINK-4055,PAYLOAD,2023-01-22 15:39:44,15.08855496,0.000132,53.2135,250.9332,70.2801,289.8333,0.00082139,0.00012814,0.0,0 STARLINK-4055,1 53161U 22083AF  23022.65259752  .00012814  00000-0  82139-3 0  9993,2 53161  53.2135 250.9332 0001320  70.2801 289.8333 15.08855496 29586,6917.8330000000005,95.437,540.611,538.785,0.0
53161.0,STARLINK-4055,PAYLOAD,2023-01-22 22:01:16,15.08839912,0.0001044999999999,53.2132,249.7442,80.3944,279.7166,0.00028479,4.248e-05,0.0,0 STARLINK-4055,1 53161U 22083AF  23022.91755731  .00004248  00000-0  28479-3 0  9999,2 53161  53.2132 249.7442 0001045  80.3944 279.7166 15.08839912 29627,6917.880999999999,95.438,540.469,539.023,0.0
53161.0,STARLINK-4055,PAYLOAD,2023-01-24 08:59:45,15.08846282,0.0001139999999999,53.2124,243.202,86.4935,273.6187,0.00028743,4.29e-05,0.0,0 STARLINK-4055,1 53161U 22083AF  23024.37483552  .00004290  00000-0  28743-3 0  9991,2 53161  53.2124 243.2020 0001140  86.4935 273.6187 15.08846282 29840,6917.861,95.437,540.515,538.938,0.0
53161.0,STARLINK-4055,PAYLOAD,2023-01-25 07:15:09,15.08843699,0.0001012,53.2127,239.0379,87.9783,272.1325,8.814299999999999e-05,1.115e-05,0.0,0 STARLINK-4055,1 53161U 22083AF  23025.30219336  .00001115  00000-0  88143-4 0  9996,2 53161  53.2127 239.0379 0001012  87.9783 272.1325 15.08843699 29980,6917.869000000001,95.437,540.434,539.034,0.0
53161.0,STARLINK-4055,PAYLOAD,2023-01-25 19:58:14,15.08839073,0.0001068,53.213,236.6591,87.8382,272.2732,1.4723e-05,-5.3e-07,0.0,0 STARLINK-4055,1 53161U 22083AF  23025.83211680 -.00000053  00000-0  14723-4 0  9992,2 53161  53.2130 236.6591 0001068  87.8382 272.2732 15.08839073 29432,6917.883000000001,95.438,540.487,539.009,0.0
53161.0,STARLINK-4055,PAYLOAD,2023-01-26 13:27:30,15.08820927,0.0001214,53.2135,233.3867,91.4264,268.6868,0.00046603,7.133e-05,0.0,0 STARLINK-4055,1 53161U 22083AF  23026.56076745  .00007133  00000-0  46603-3 0  9990,2 53161  53.2135 233.3867 0001214  91.4264 268.6868 15.08820927 29549,6917.939,95.439,540.644,538.964,0.0
53161.0,STARLINK-4055,PAYLOAD,2023-01-26 19:49:02,15.08829567,0.0001127,53.2145,232.1976,91.1595,268.9527,0.00025764,3.814e-05,0.0,0 STARLINK-4055,1 53161U 22083AF  23026.82572337  .00003814  00000-0  25764-3 0  9994,2 53161  53.2145 232.1976 0001127  91.1595 268.9527 15.08829567 30215,6917.911999999999,95.438,540.557,538.998,0.0
53161.0,STARLINK-4055,PAYLOAD,2023-01-26 21:24:25,15.08842637,0.0001165,53.2146,231.9,86.3868,273.7257,5.8358e-05,6.41e-06,0.0,0 STARLINK-4055,1 53161U 22083AF  23026.89195724  .00000641  00000-0  58358-4 0  9993,2 53161  53.2146 231.9000 0001165  86.3868 273.7257 15.08842637 30220,6917.871999999999,95.437,540.543,538.931,0.0
53161.0,STARLINK-4055,PAYLOAD,2023-01-27 13:18:16,15.08835914,0.0001279,53.2141,228.9275,84.5518,275.562,0.00012801,1.75e-05,0.0,0 STARLINK-4055,1 53161U 22083AF  23027.55436016  .00001750  00000-0  12801-3 0  9993,2 53161  53.2141 228.9275 0001279  84.5518 275.5620 15.08835914 29696,6917.893,95.438,540.643,538.873,0.0
53161.0,STARLINK-4055,PAYLOAD,2023-01-27 19:39:48,15.08842637,0.0001157,53.2142,227.7381,79.925,280.1873,7.735600000000001e-05,9.44e-06,0.0,0 STARLINK-4055,1 53161U 22083AF  23027.81931692  .00000944  00000-0  77356-4 0  9993,2 53161  53.2142 227.7381 0001157  79.9250 280.1873 15.08842637 29735,6917.871999999999,95.437,540.538,538.937,0.0
53161.0,STARLINK-4055,PAYLOAD,2023-01-28 17:55:12,15.0884091,0.0001144,53.2142,223.5751,75.1259,284.986,6.25e-05,7.07e-06,0.0,0 STARLINK-4055,1 53161U 22083AF  23028.74667763  .00000707  00000-0  62500-4 0  9993,2 53161  53.2142 223.5751 0001144  75.1259 284.9860 15.08840910 30500,6917.878,95.437,540.534,538.951,0.0
53161.0,STARLINK-4055,PAYLOAD,2023-01-28 19:30:35,15.08841984,0.0001147,53.2141,223.2777,75.1014,285.0105,6.9954e-05,8.26e-06,0.0,0 STARLINK-4055,1 53161U 22083AF  23028.81291661  .00000826  00000-0  69954-4 0  9993,2 53161  53.2141 223.2777 0001147  75.1014 285.0105 15.08841984 29881,6917.874,95.437,540.533,538.946,0.0
53161.0,STARLINK-4055,PAYLOAD,2023-01-29 19:21:23,15.08836982,0.0001088,53.2139,218.8159,91.8896,268.2221,2.2847e-05,7.6e-07,0.0,0 STARLINK-4055,1 53161U 22083AF  23029.80652006  .00000076  00000-0  22847-4 0  9994,2 53161  53.2139 218.8159 0001088  91.8896 268.2221 15.08836982 30661,6917.89,95.438,540.507,539.002,0.0
53161.0,STARLINK-4055,PAYLOAD,2023-01-30 12:50:38,15.08835291,0.0001107,53.2143,215.5441,89.0732,271.0387,6.8451e-06,-1.79e-06,0.0,0 STARLINK-4055,1 53161U 22083AF  23030.53516228 -.00000179  00000-0  68451-5 0  9998,2 53161  53.2143 215.5441 0001107  89.0732 271.0387 15.08835291 30144,6917.895,95.438,540.526,538.994,0.0
53161.0,STARLINK-4055,PAYLOAD,2023-01-30 19:12:10,15.08838132,0.0001112,53.214,214.355,90.1046,270.0073,2.9858e-05,1.87e-06,0.0,0 STARLINK-4055,1 53161U 22083AF  23030.80012010  .00000187  00000-0  29858-4 0  9993,2 53161  53.2140 214.3550 0001112  90.1046 270.0073 15.08838132 30188,6917.886,95.438,540.52,538.982,0.0
53161.0,STARLINK-4055,PAYLOAD,2023-01-31 04:44:29,15.08836819,0.0001093,53.2141,212.5709,89.2257,270.886,3.9978e-05,3.48e-06,0.0,0 STARLINK-4055,1 53161U 22083AF  23031.19756129  .00000348  00000-0  39978-4 0  9995,2 53161  53.2141 212.5709 0001093  89.2257 270.8860 15.08836819 30874,6917.89,95.438,540.511,538.999,0.0
53161.0,STARLINK-4055,PAYLOAD,2023-01-31 19:02:57,15.08836727,0.0001104,53.2137,209.8949,91.4028,268.7091,6.1395e-05,6.89e-06,0.0,0 STARLINK-4055,1 53161U 22083AF  23031.79372215  .00000689  00000-0  61395-4 0  9997,2 53161  53.2137 209.8949 0001104  91.4028 268.7091 15.08836727 30339,6917.89,95.438,540.519,538.992,0.0
53161.0,STARLINK-4055,PAYLOAD,2023-02-01 04:35:16,15.08836501,0.0001116,53.2136,208.1108,91.5254,268.5866,5.6158e-05,6.06e-06,0.0,0 STARLINK-4055,1 53161U 22083AF  23032.19116331  .00000606  00000-0  56158-4 0  9997,2 53161  53.2136 208.1108 0001116  91.5254 268.5866 15.08836501 30396,6917.891,95.438,540.528,538.984,0.0
53161.0,STARLINK-4055,PAYLOAD,2023-02-01 14:07:35,15.08837773,0.0001116,53.2135,206.3266,94.7621,265.3498,6.0199e-05,6.7e-06,0.0,0 STARLINK-4055,1 53161U 22083AF  23032.58860293  .00000670  00000-0  60199-4 0  9994,2 53161  53.2135 206.3266 0001116  94.7621 265.3498 15.08837773 31088,6917.887,95.438,540.524,538.98,0.0
53161.0,STARLINK-4055,PAYLOAD,2023-02-02 04:26:03,15.08838782,0.0001086,53.2139,203.6501,91.6041,268.5075,4.267e-05,3.91e-06,0.0,0 STARLINK-4055,1 53161U 22083AF  23033.18476314  .00000391  00000-0  42670-4 0  9992,2 53161  53.2139 203.6501 0001086  91.6041 268.5075 15.08838782 30549,6917.884,95.438,540.5,538.998,0.0
53161.0,STARLINK-4055,PAYLOAD,2023-02-02 20:19:54,15.08843253,0.0001133,53.2138,200.6763,89.371,270.7412,6.8231e-05,7.98e-06,0.0,0 STARLINK-4055,1 53161U 22083AF  23033.84715991  .00000798  00000-0  68231-4 0  9994,2 53161  53.2138 200.6763 0001133  89.3710 270.7412 15.08843253 31275,6917.87,95.437,540.519,538.952,0.0
53161.0,STARLINK-4055,PAYLOAD,2023-02-03 10:38:23,15.08841383,0.0001572,53.2129,197.9992,86.9392,273.178,4.5874e-05,4.42e-06,0.0,0 STARLINK-4055,1 53161U 22083AF  23034.44332332  .00000442  00000-0  45874-4 0  9999,2 53161  53.2129 197.9992 0001572  86.9392 273.1780 15.08841383 30730,6917.876,95.437,540.829,538.654,0.0
53161.0,STARLINK-4055,PAYLOAD,2023-02-04 04:07:37,15.08841095,0.000143,53.2131,194.7286,86.0447,274.0709,5.7565e-05,6.28e-06,0.0,0 STARLINK-4055,1 53161U 22083AF  23035.17196214  .00000628  00000-0  57565-4 0  9993,2 53161  53.2131 194.7286 0001430  86.0447 274.0709 15.08841095 31472,6917.877,95.437,540.731,538.753,0.0
53161.0,STARLINK-4055,PAYLOAD,2023-02-04 13:39:56,15.08841566,0.0001409,53.2131,192.9443,86.3566,273.7587,5.4603e-05,5.81e-06,0.0,0 STARLINK-4055,1 53161U 22083AF  23035.56940149  .00000581  00000-0  54603-4 0  9998,2 53161  53.2131 192.9443 0001409  86.3566 273.7587 15.08841566 30908,6917.876,95.437,540.715,538.766,0.0
53161.0,STARLINK-4055,PAYLOAD,2023-02-04 16:50:43,15.08744289,0.0001347,53.2149,192.3511,109.7751,250.3386,0.0013619,0.00021396,0.0,0 STARLINK-4055,1 53161U 22083AF  23035.70189723  .00021396  00000-0  13619-2 0  9994,2 53161  53.2149 192.3511 0001347 109.7751 250.3386 15.08744289 31558,6918.173,95.444,540.97,539.106,0.0
53161.0,STARLINK-4055,PAYLOAD,2023-02-05 13:30:43,15.08834107,0.0001168,53.2144,188.4845,92.5601,267.5525,-3.1054e-06,-3.37e-06,0.0,0 STARLINK-4055,1 53161U 22083AF  23036.56300847 -.00000337  00000-0 -31054-5 0  9991,2 53161  53.2144 188.4845 0001168  92.5601 267.5525 15.08834107 31681,6917.898,95.438,540.571,538.955,0.0
53161.0,STARLINK-4055,PAYLOAD,2023-02-05 16:41:30,15.08835114,0.0001115,53.2149,187.8897,97.398,262.7138,-1.2536e-07,-2.9e-06,0.0,0 STARLINK-4055,1 53161U 22083AF  23036.69548775 -.00000290  00000-0 -12536-6 0  9992,2 53161  53.2149 187.8897 0001115  97.3980 262.7138 15.08835114 31070,6917.895,95.438,540.532,538.989,0.0
53161.0,STARLINK-4055,PAYLOAD,2023-02-06 13:21:30,15.08841754,0.0001068,53.2149,184.0235,100.1101,260.0012,6.0624e-05,6.77e-06,0.0,0 STARLINK-4055,1 53161U 22083AF  23037.55660281  .00000677  00000-0  60624-4 0  9991,2 53161  53.2149 184.0235 0001068 100.1101 260.0012 15.08841754 31204,6917.875,95.437,540.479,539.001,0.0
